STARLINK-36976          
1 68066U 26041AC  26071.91668981 -.01614458  00000+0 -78277-2 0  9996
2 68066  53.1583  45.7447 0000817 109.8291 176.3979 15.84649350  2896
STARLINK-36929          
1 68067U 26041AD  26071.91668981 -.01596130  00000+0 -78228-2 0  9999
2 68067  53.1583  45.7608 0000646 102.8956 175.6528 15.84394482  2892
STARLINK-36990          
1 68068U 26041AE  26071.91668981 -.01628944  00000+0 -78775-2 0  9996
2 68068  53.1584  45.7363 0000650  99.5993 190.6463 15.84731877  2898
STARLINK-36766          
1 68069U 26042A   26071.91668981 -.01536713  67263-3 -44063-2 0  9991
2 68069  53.1590 178.7757 0000980  67.9802 188.7473 15.92576155  2562
STARLINK-36823          
1 68070U 26042B   26071.91668981 -.01537348  67392-3 -43809-2 0  9998
2 68070  53.1585 178.7698 0000928  72.1827 187.3155 15.92694970  2567
STARLINK-36970          
1 68071U 26042C   26071.91668981 -.01525654  66608-3 -42948-2 0  9998
2 68071  53.1591 178.7588 0001025  69.6832 195.2281 15.92926157  2573
STARLINK-36972          
1 68072U 26042D   26071.91668981 -.01534908  67277-3 -43460-2 0  9994
2 68072  53.1590 178.7649 0000968  67.2021 194.7485 15.92817138  2578
STARLINK-37074          
1 68073U 26042E   26071.91668981 -.01537682  67655-3 -43010-2 0  9998
2 68073  53.1591 178.7533 0000965  66.9368 200.7266 15.93050270  2571
STARLINK-37045          
1 68074U 26042F   26071.91668981 -.01528479  66988-3 -42502-2 0  9996
2 68074  53.1589 178.7471 0000992  66.8778 203.6965 15.93160609  2570
STARLINK-37026          
1 68075U 26042G   26071.91668981 -.01529666  67159-3 -42282-2 0  9992
2 68075  53.1589 178.7409 0000770  71.4456 202.1041 15.93274551  2572
STARLINK-37023          
1 68076U 26042H   26071.91668981 -.01533330  67535-3 -42117-2 0  9991
2 68076  53.1588 178.7353 0000858  68.8157 207.4993 15.93394819  2579
STARLINK-37036          
1 68077U 26042J   26071.91668981 -.01530524  67388-3 -41775-2 0  9999
2 68077  53.1590 178.7302 0000981  67.7271 211.0838 15.93513891  2571
STARLINK-36973          
1 68078U 26042K   26071.91668981 -.01541678  68455-3 -41549-2 0  9997
2 68078  53.1591 178.7191 0000881  66.6133 217.5180 15.93755743  2578
STARLINK-37063          
1 68079U 26042L   26071.91668981 -.01526351  67131-3 -41401-2 0  9996
2 68079  53.1586 178.7250 0001022  72.1522 209.0943 15.93631798  2577
STARLINK-37051          
1 68080U 26042M   26071.91668981 -.01535130  68081-3 -40864-2 0  9990
2 68080  53.1588 178.7078 0000803  60.0266 229.4894 15.93987974  2577
STARLINK-37066          
1 68081U 26042N   26071.91668981 -.01540783  68461-3 -41272-2 0  9997
2 68081  53.1594 178.7133 0000999  65.2390 221.6881 15.93870773  2576
