[{"OBJECT_NAME":"STARLINK-36976","OBJECT_ID":"2026-041AC","EPOCH":"2026-03-12T22:00:01.999584","MEAN_MOTION":15.8464935,"ECCENTRICITY":8.17e-5,"INCLINATION":53.1583,"RA_OF_ASC_NODE":45.7447,"ARG_OF_PERICENTER":109.8291,"MEAN_ANOMALY":176.3979,"EPHEMERIS_TYPE":0,"CLASSIFICATION_TYPE":"U","NORAD_CAT_ID":68066,"ELEMENT_SET_NO":999,"REV_AT_EPOCH":289,"BSTAR":-0.0078277406,"MEAN_MOTION_DOT":-0.01614458,"MEAN_MOTION_DDOT":0},{"OBJECT_NAME":"STARLINK-36929","OBJECT_ID":"2026-041AD","EPOCH":"2026-03-12T22:00:01.999584","MEAN_MOTION":15.84394482,"ECCENTRICITY":6.467e-5,"INCLINATION":53.1583,"RA_OF_ASC_NODE":45.7608,"ARG_OF_PERICENTER":102.8956,"MEAN_ANOMALY":175.6528,"EPHEMERIS_TYPE":0,"CLASSIFICATION_TYPE":"U","NORAD_CAT_ID":68067,"ELEMENT_SET_NO":999,"REV_AT_EPOCH":289,"BSTAR":-0.0078227992,"MEAN_MOTION_DOT":-0.0159613,"MEAN_MOTION_DDOT":0},{"OBJECT_NAME":"STARLINK-36990","OBJECT_ID":"2026-041AE","EPOCH":"2026-03-12T22:00:01.999584","MEAN_MOTION":15.84731877,"ECCENTRICITY":6.508e-5,"INCLINATION":53.1584,"RA_OF_ASC_NODE":45.7363,"ARG_OF_PERICENTER":99.5993,"MEAN_ANOMALY":190.6463,"EPHEMERIS_TYPE":0,"CLASSIFICATION_TYPE":"U","NORAD_CAT_ID":68068,"ELEMENT_SET_NO":999,"REV_AT_EPOCH":289,"BSTAR":-0.0078775251,"MEAN_MOTION_DOT":-0.01628944,"MEAN_MOTION_DDOT":0},{"OBJECT_NAME":"STARLINK-36766","OBJECT_ID":"2026-042A","EPOCH":"2026-03-12T22:00:01.999584","MEAN_MOTION":15.92576155,"ECCENTRICITY":9.807e-5,"INCLINATION":53.159,"RA_OF_ASC_NODE":178.7757,"ARG_OF_PERICENTER":67.9802,"MEAN_ANOMALY":188.7473,"EPHEMERIS_TYPE":0,"CLASSIFICATION_TYPE":"U","NORAD_CAT_ID":68069,"ELEMENT_SET_NO":999,"REV_AT_EPOCH":256,"BSTAR":-0.0044063154,"MEAN_MOTION_DOT":-0.01536713,"MEAN_MOTION_DDOT":0.00067262663},{"OBJECT_NAME":"STARLINK-36823","OBJECT_ID":"2026-042B","EPOCH":"2026-03-12T22:00:01.999584","MEAN_MOTION":15.9269497,"ECCENTRICITY":9.289e-5,"INCLINATION":53.1585,"RA_OF_ASC_NODE":178.7698,"ARG_OF_PERICENTER":72.1827,"MEAN_ANOMALY":187.3155,"EPHEMERIS_TYPE":0,"CLASSIFICATION_TYPE":"U","NORAD_CAT_ID":68070,"ELEMENT_SET_NO":999,"REV_AT_EPOCH":256,"BSTAR":-0.0043808899,"MEAN_MOTION_DOT":-0.01537348,"MEAN_MOTION_DDOT":0.00067392031},{"OBJECT_NAME":"STARLINK-36970","OBJECT_ID":"2026-042C","EPOCH":"2026-03-12T22:00:01.999584","MEAN_MOTION":15.92926157,"ECCENTRICITY":0.00010254,"INCLINATION":53.1591,"RA_OF_ASC_NODE":178.7588,"ARG_OF_PERICENTER":69.6832,"MEAN_ANOMALY":195.2281,"EPHEMERIS_TYPE":0,"CLASSIFICATION_TYPE":"U","NORAD_CAT_ID":68071,"ELEMENT_SET_NO":999,"REV_AT_EPOCH":257,"BSTAR":-0.0042947882,"MEAN_MOTION_DOT":-0.01525654,"MEAN_MOTION_DDOT":0.00066607743},{"OBJECT_NAME":"STARLINK-36972","OBJECT_ID":"2026-042D","EPOCH":"2026-03-12T22:00:01.999584","MEAN_MOTION":15.92817138,"ECCENTRICITY":9.689e-5,"INCLINATION":53.159,"RA_OF_ASC_NODE":178.7649,"ARG_OF_PERICENTER":67.2021,"MEAN_ANOMALY":194.7485,"EPHEMERIS_TYPE":0,"CLASSIFICATION_TYPE":"U","NORAD_CAT_ID":68072,"ELEMENT_SET_NO":999,"REV_AT_EPOCH":257,"BSTAR":-0.004345962,"MEAN_MOTION_DOT":-0.01534908,"MEAN_MOTION_DDOT":0.00067277047},{"OBJECT_NAME":"STARLINK-37074","OBJECT_ID":"2026-042E","EPOCH":"2026-03-12T22:00:01.999584","MEAN_MOTION":15.9305027,"ECCENTRICITY":9.656e-5,"INCLINATION":53.1591,"RA_OF_ASC_NODE":178.7533,"ARG_OF_PERICENTER":66.9368,"MEAN_ANOMALY":200.7266,"EPHEMERIS_TYPE":0,"CLASSIFICATION_TYPE":"U","NORAD_CAT_ID":68073,"ELEMENT_SET_NO":999,"REV_AT_EPOCH":257,"BSTAR":-0.004301015,"MEAN_MOTION_DOT":-0.01537682,"MEAN_MOTION_DDOT":0.00067655089},{"OBJECT_NAME":"STARLINK-37045","OBJECT_ID":"2026-042F","EPOCH":"2026-03-12T22:00:01.999584","MEAN_MOTION":15.93160609,"ECCENTRICITY":9.922e-5,"INCLINATION":53.1589,"RA_OF_ASC_NODE":178.7471,"ARG_OF_PERICENTER":66.8778,"MEAN_ANOMALY":203.6965,"EPHEMERIS_TYPE":0,"CLASSIFICATION_TYPE":"U","NORAD_CAT_ID":68074,"ELEMENT_SET_NO":999,"REV_AT_EPOCH":257,"BSTAR":-0.0042502148,"MEAN_MOTION_DOT":-0.01528479,"MEAN_MOTION_DDOT":0.00066988296},{"OBJECT_NAME":"STARLINK-37026","OBJECT_ID":"2026-042G","EPOCH":"2026-03-12T22:00:01.999584","MEAN_MOTION":15.93274551,"ECCENTRICITY":7.707e-5,"INCLINATION":53.1589,"RA_OF_ASC_NODE":178.7409,"ARG_OF_PERICENTER":71.4456,"MEAN_ANOMALY":202.1041,"EPHEMERIS_TYPE":0,"CLASSIFICATION_TYPE":"U","NORAD_CAT_ID":68075,"ELEMENT_SET_NO":999,"REV_AT_EPOCH":257,"BSTAR":-0.0042282158,"MEAN_MOTION_DOT":-0.01529666,"MEAN_MOTION_DDOT":0.00067159214},{"OBJECT_NAME":"STARLINK-37023","OBJECT_ID":"2026-042H","EPOCH":"2026-03-12T22:00:01.999584","MEAN_MOTION":15.93394819,"ECCENTRICITY":8.585e-5,"INCLINATION":53.1588,"RA_OF_ASC_NODE":178.7353,"ARG_OF_PERICENTER":68.8157,"MEAN_ANOMALY":207.4993,"EPHEMERIS_TYPE":0,"CLASSIFICATION_TYPE":"U","NORAD_CAT_ID":68076,"ELEMENT_SET_NO":999,"REV_AT_EPOCH":257,"BSTAR":-0.004211674,"MEAN_MOTION_DOT":-0.0153333,"MEAN_MOTION_DDOT":0.00067534538},{"OBJECT_NAME":"STARLINK-37036","OBJECT_ID":"2026-042J","EPOCH":"2026-03-12T22:00:01.999584","MEAN_MOTION":15.93513891,"ECCENTRICITY":9.811e-5,"INCLINATION":53.159,"RA_OF_ASC_NODE":178.7302,"ARG_OF_PERICENTER":67.7271,"MEAN_ANOMALY":211.0838,"EPHEMERIS_TYPE":0,"CLASSIFICATION_TYPE":"U","NORAD_CAT_ID":68077,"ELEMENT_SET_NO":999,"REV_AT_EPOCH":257,"BSTAR":-0.0041774918,"MEAN_MOTION_DOT":-0.01530524,"MEAN_MOTION_DDOT":0.00067387858},{"OBJECT_NAME":"STARLINK-36973","OBJECT_ID":"2026-042K","EPOCH":"2026-03-12T22:00:01.999584","MEAN_MOTION":15.93755743,"ECCENTRICITY":8.814e-5,"INCLINATION":53.1591,"RA_OF_ASC_NODE":178.7191,"ARG_OF_PERICENTER":66.6133,"MEAN_ANOMALY":217.518,"EPHEMERIS_TYPE":0,"CLASSIFICATION_TYPE":"U","NORAD_CAT_ID":68078,"ELEMENT_SET_NO":999,"REV_AT_EPOCH":257,"BSTAR":-0.0041549039,"MEAN_MOTION_DOT":-0.01541678,"MEAN_MOTION_DDOT":0.00068454742},{"OBJECT_NAME":"STARLINK-37063","OBJECT_ID":"2026-042L","EPOCH":"2026-03-12T22:00:01.999584","MEAN_MOTION":15.93631798,"ECCENTRICITY":0.00010223,"INCLINATION":53.1586,"RA_OF_ASC_NODE":178.725,"ARG_OF_PERICENTER":72.1522,"MEAN_ANOMALY":209.0943,"EPHEMERIS_TYPE":0,"CLASSIFICATION_TYPE":"U","NORAD_CAT_ID":68079,"ELEMENT_SET_NO":999,"REV_AT_EPOCH":257,"BSTAR":-0.0041400605,"MEAN_MOTION_DOT":-0.01526351,"MEAN_MOTION_DDOT":0.00067130523},{"OBJECT_NAME":"STARLINK-37051","OBJECT_ID":"2026-042M","EPOCH":"2026-03-12T22:00:01.999584","MEAN_MOTION":15.93987974,"ECCENTRICITY":8.03e-5,"INCLINATION":53.1588,"RA_OF_ASC_NODE":178.7078,"ARG_OF_PERICENTER":60.0266,"MEAN_ANOMALY":229.4894,"EPHEMERIS_TYPE":0,"CLASSIFICATION_TYPE":"U","NORAD_CAT_ID":68080,"ELEMENT_SET_NO":999,"REV_AT_EPOCH":257,"BSTAR":-0.0040864255,"MEAN_MOTION_DOT":-0.0153513,"MEAN_MOTION_DDOT":0.00068080559},{"OBJECT_NAME":"STARLINK-37066","OBJECT_ID":"2026-042N","EPOCH":"2026-03-12T22:00:01.999584","MEAN_MOTION":15.93870773,"ECCENTRICITY":9.999e-5,"INCLINATION":53.1594,"RA_OF_ASC_NODE":178.7133,"ARG_OF_PERICENTER":65.239,"MEAN_ANOMALY":221.6881,"EPHEMERIS_TYPE":0,"CLASSIFICATION_TYPE":"U","NORAD_CAT_ID":68081,"ELEMENT_SET_NO":999,"REV_AT_EPOCH":257,"BSTAR":-0.004127187,"MEAN_MOTION_DOT":-0.01540783,"MEAN_MOTION_DDOT":0.00068460501}]
